QIANFAN-89              
1 63175U 25046S   25256.88809805  .00000137  00000+0  19275-3 0  9992
2 63175  88.9845 329.3187 0016951  33.2983 326.9231 13.50978247 35278
QIANFAN-90              
1 63176U 25046T   25256.91691745  .00000121  00000+0  16893-3 0  9995
2 63176  88.9845 329.2880 0013856  33.1998 327.0020 13.50977187 35296
